[{"OBJECT_NAME":"STARLINK-30826","OBJECT_ID":"2023-167P","EPOCH":"2026-03-09T22:00:01.999584","MEAN_MOTION":15.27573902,"ECCENTRICITY":0.00018071,"INCLINATION":43.0009,"RA_OF_ASC_NODE":142.099,"ARG_OF_PERICENTER":284.1661,"MEAN_ANOMALY":305.1033,"EPHEMERIS_TYPE":0,"CLASSIFICATION_TYPE":"U","NORAD_CAT_ID":58188,"ELEMENT_SET_NO":999,"REV_AT_EPOCH":578,"BSTAR":-0.00084702889,"MEAN_MOTION_DOT":-0.00023493,"MEAN_MOTION_DDOT":0},{"OBJECT_NAME":"BANDWAGON-4 OBJECT M","OBJECT_ID":"2025-248M","EPOCH":"2026-03-09T00:50:26.830464","MEAN_MOTION":15.24295413,"ECCENTRICITY":0.00129441,"INCLINATION":45.4108,"RA_OF_ASC_NODE":294.9904,"ARG_OF_PERICENTER":207.5285,"MEAN_ANOMALY":152.4918,"EPHEMERIS_TYPE":0,"CLASSIFICATION_TYPE":"U","NORAD_CAT_ID":66304,"ELEMENT_SET_NO":999,"REV_AT_EPOCH":1803,"BSTAR":0.00095703617,"MEAN_MOTION_DOT":0.00023645,"MEAN_MOTION_DDOT":0}]
